[{"OBJECT_NAME":"GSAT0206 (GALILEO 10)","OBJECT_ID":"2015-045B","EPOCH":"2026-04-03T08:59:14.870688","MEAN_MOTION":1.7047395,"ECCENTRICITY":0.00028142,"INCLINATION":54.9697,"RA_OF_ASC_NODE":223.6683,"ARG_OF_PERICENTER":47.1384,"MEAN_ANOMALY":312.8358,"EPHEMERIS_TYPE":0,"CLASSIFICATION_TYPE":"U","NORAD_CAT_ID":40890,"ELEMENT_SET_NO":999,"REV_AT_EPOCH":6576,"BSTAR":0,"MEAN_MOTION_DOT":-1.3e-7,"MEAN_MOTION_DDOT":0},{"OBJECT_NAME":"BEIDOU-3S IGSO-2S (C56)","OBJECT_ID":"2015-053A","EPOCH":"2026-04-04T21:48:29.137248","MEAN_MOTION":1.0027737,"ECCENTRICITY":0.00623728,"INCLINATION":49.3383,"RA_OF_ASC_NODE":259.6493,"ARG_OF_PERICENTER":189.8511,"MEAN_ANOMALY":167.6444,"EPHEMERIS_TYPE":0,"CLASSIFICATION_TYPE":"U","NORAD_CAT_ID":40938,"ELEMENT_SET_NO":999,"REV_AT_EPOCH":3861,"BSTAR":0,"MEAN_MOTION_DOT":-1.41e-6,"MEAN_MOTION_DDOT":0},{"OBJECT_NAME":"GPS BIIF-11 (PRN 10)","OBJECT_ID":"2015-062A","EPOCH":"2026-04-04T23:40:27.177888","MEAN_MOTION":2.00567188,"ECCENTRICITY":0.0111285,"INCLINATION":56.9136,"RA_OF_ASC_NODE":33.6315,"ARG_OF_PERICENTER":231.593,"MEAN_ANOMALY":127.395,"EPHEMERIS_TYPE":0,"CLASSIFICATION_TYPE":"U","NORAD_CAT_ID":41019,"ELEMENT_SET_NO":999,"REV_AT_EPOCH":7636,"BSTAR":0,"MEAN_MOTION_DOT":-8.4e-7,"MEAN_MOTION_DDOT":0},{"OBJECT_NAME":"GSAT-15 (GAGAN/PRN 139)","OBJECT_ID":"2015-065A","EPOCH":"2026-04-05T21:07:21.592128","MEAN_MOTION":1.00269213,"ECCENTRICITY":0.0002853,"INCLINATION":0.0168,"RA_OF_ASC_NODE":214.8735,"ARG_OF_PERICENTER":197.0018,"MEAN_ANOMALY":192.6242,"EPHEMERIS_TYPE":0,"CLASSIFICATION_TYPE":"U","NORAD_CAT_ID":41028,"ELEMENT_SET_NO":999,"REV_AT_EPOCH":3807,"BSTAR":0,"MEAN_MOTION_DOT":0,"MEAN_MOTION_DDOT":0},{"OBJECT_NAME":"GSAT0209 (GALILEO 12)","OBJECT_ID":"2015-079A","EPOCH":"2026-04-02T22:56:35.738880","MEAN_MOTION":1.70474345,"ECCENTRICITY":0.00055143,"INCLINATION":55.7797,"RA_OF_ASC_NODE":103.3236,"ARG_OF_PERICENTER":325.8217,"MEAN_ANOMALY":34.1781,"EPHEMERIS_TYPE":0,"CLASSIFICATION_TYPE":"U","NORAD_CAT_ID":41174,"ELEMENT_SET_NO":999,"REV_AT_EPOCH":6349,"BSTAR":0,"MEAN_MOTION_DOT":3.2e-7,"MEAN_MOTION_DDOT":0},{"OBJECT_NAME":"GSAT0208 (GALILEO 11)","OBJECT_ID":"2015-079B","EPOCH":"2026-04-03T04:13:44.855904","MEAN_MOTION":1.70474211,"ECCENTRICITY":0.00049738,"INCLINATION":55.7782,"RA_OF_ASC_NODE":103.3145,"ARG_OF_PERICENTER":327.5574,"MEAN_ANOMALY":32.446,"EPHEMERIS_TYPE":0,"CLASSIFICATION_TYPE":"U","NORAD_CAT_ID":41175,"ELEMENT_SET_NO":999,"REV_AT_EPOCH":6391,"BSTAR":0,"MEAN_MOTION_DOT":3.1e-7,"MEAN_MOTION_DDOT":0},{"OBJECT_NAME":"IRNSS-1E","OBJECT_ID":"2016-003A","EPOCH":"2026-04-04T08:10:43.434336","MEAN_MOTION":1.00272036,"ECCENTRICITY":0.0016904,"INCLINATION":33.0772,"RA_OF_ASC_NODE":60.8121,"ARG_OF_PERICENTER":186.2611,"MEAN_ANOMALY":180.0759,"EPHEMERIS_TYPE":0,"CLASSIFICATION_TYPE":"U","NORAD_CAT_ID":41241,"ELEMENT_SET_NO":999,"REV_AT_EPOCH":3734,"BSTAR":0,"MEAN_MOTION_DOT":-2.92e-6,"MEAN_MOTION_DDOT":0},{"OBJECT_NAME":"GPS BIIF-12 (PRN 32)","OBJECT_ID":"2016-007A","EPOCH":"2026-04-05T01:45:21.101760","MEAN_MOTION":2.00555323,"ECCENTRICITY":0.0095997,"INCLINATION":55.4776,"RA_OF_ASC_NODE":92.3566,"ARG_OF_PERICENTER":246.7403,"MEAN_ANOMALY":112.2545,"EPHEMERIS_TYPE":0,"CLASSIFICATION_TYPE":"U","NORAD_CAT_ID":41328,"ELEMENT_SET_NO":999,"REV_AT_EPOCH":7437,"BSTAR":0,"MEAN_MOTION_DOT":3.0e-8,"MEAN_MOTION_DDOT":0},{"OBJECT_NAME":"COSMOS 2514 (751)","OBJECT_ID":"2016-008A","EPOCH":"2026-04-05T13:11:53.316960","MEAN_MOTION":2.1310278,"ECCENTRICITY":0.0009071,"INCLINATION":65.0637,"RA_OF_ASC_NODE":315.5007,"ARG_OF_PERICENTER":201.5868,"MEAN_ANOMALY":158.4205,"EPHEMERIS_TYPE":0,"CLASSIFICATION_TYPE":"U","NORAD_CAT_ID":41330,"ELEMENT_SET_NO":999,"REV_AT_EPOCH":7907,"BSTAR":0,"MEAN_MOTION_DOT":-4.3e-7,"MEAN_MOTION_DDOT":0},{"OBJECT_NAME":"IRNSS-1F","OBJECT_ID":"2016-015A","EPOCH":"2026-04-05T17:54:05.215680","MEAN_MOTION":1.00275591,"ECCENTRICITY":0.0017867,"INCLINATION":5.1658,"RA_OF_ASC_NODE":98.4631,"ARG_OF_PERICENTER":187.9731,"MEAN_ANOMALY":208.5997,"EPHEMERIS_TYPE":0,"CLASSIFICATION_TYPE":"U","NORAD_CAT_ID":41384,"ELEMENT_SET_NO":999,"REV_AT_EPOCH":3694,"BSTAR":0,"MEAN_MOTION_DOT":1.62e-6,"MEAN_MOTION_DDOT":0},{"OBJECT_NAME":"BEIDOU-2 IGSO-6 (C13)","OBJECT_ID":"2016-021A","EPOCH":"2026-04-05T19:22:26.571072","MEAN_MOTION":1.00272864,"ECCENTRICITY":0.0058931,"INCLINATION":60.1313,"RA_OF_ASC_NODE":38.7585,"ARG_OF_PERICENTER":233.3967,"MEAN_ANOMALY":308.1583,"EPHEMERIS_TYPE":0,"CLASSIFICATION_TYPE":"U","NORAD_CAT_ID":41434,"ELEMENT_SET_NO":999,"REV_AT_EPOCH":3675,"BSTAR":0,"MEAN_MOTION_DOT":-1.59e-6,"MEAN_MOTION_DDOT":0},{"OBJECT_NAME":"IRNSS-1G","OBJECT_ID":"2016-027A","EPOCH":"2026-04-05T20:12:24.811776","MEAN_MOTION":1.00270071,"ECCENTRICITY":0.0005872,"INCLINATION":5.0165,"RA_OF_ASC_NODE":99.1899,"ARG_OF_PERICENTER":331.6108,"MEAN_ANOMALY":195.9626,"EPHEMERIS_TYPE":0,"CLASSIFICATION_TYPE":"U","NORAD_CAT_ID":41469,"ELEMENT_SET_NO":999,"REV_AT_EPOCH":3645,"BSTAR":0,"MEAN_MOTION_DOT":-3.31e-6,"MEAN_MOTION_DDOT":0},{"OBJECT_NAME":"GSAT0211 (GALILEO 14)","OBJECT_ID":"2016-030A","EPOCH":"2026-04-04T11:21:42.401088","MEAN_MOTION":1.70474141,"ECCENTRICITY":0.00028673,"INCLINATION":55.1194,"RA_OF_ASC_NODE":223.7205,"ARG_OF_PERICENTER":14.1895,"MEAN_ANOMALY":345.7766,"EPHEMERIS_TYPE":0,"CLASSIFICATION_TYPE":"U","NORAD_CAT_ID":41549,"ELEMENT_SET_NO":999,"REV_AT_EPOCH":6141,"BSTAR":0,"MEAN_MOTION_DOT":-7.0e-8,"MEAN_MOTION_DDOT":0},{"OBJECT_NAME":"GSAT0210 (GALILEO 13)","OBJECT_ID":"2016-030B","EPOCH":"2026-04-04T03:27:29.627424","MEAN_MOTION":1.70474077,"ECCENTRICITY":0.00020513,"INCLINATION":55.1189,"RA_OF_ASC_NODE":223.7276,"ARG_OF_PERICENTER":215.3594,"MEAN_ANOMALY":144.5829,"EPHEMERIS_TYPE":0,"CLASSIFICATION_TYPE":"U","NORAD_CAT_ID":41550,"ELEMENT_SET_NO":999,"REV_AT_EPOCH":6140,"BSTAR":0,"MEAN_MOTION_DOT":-8.0e-8,"MEAN_MOTION_DDOT":0},{"OBJECT_NAME":"BEIDOU-2 G7 (C03)","OBJECT_ID":"2016-037A","EPOCH":"2026-04-05T21:22:01.608960","MEAN_MOTION":1.0027747,"ECCENTRICITY":0.0007576,"INCLINATION":1.5415,"RA_OF_ASC_NODE":68.6376,"ARG_OF_PERICENTER":350.0374,"MEAN_ANOMALY":206.4972,"EPHEMERIS_TYPE":0,"CLASSIFICATION_TYPE":"U","NORAD_CAT_ID":41586,"ELEMENT_SET_NO":999,"REV_AT_EPOCH":616,"BSTAR":0,"MEAN_MOTION_DOT":-3.51e-6,"MEAN_MOTION_DDOT":0},{"OBJECT_NAME":"EUTELSAT 117 WEST B (WAAS/PRN 131)","OBJECT_ID":"2016-038B","EPOCH":"2026-04-05T15:36:40.577760","MEAN_MOTION":1.00270922,"ECCENTRICITY":2.68e-5,"INCLINATION":0.0146,"RA_OF_ASC_NODE":59.4786,"ARG_OF_PERICENTER":233.8299,"MEAN_ANOMALY":17.8137,"EPHEMERIS_TYPE":0,"CLASSIFICATION_TYPE":"U","NORAD_CAT_ID":41589,"ELEMENT_SET_NO":999,"REV_AT_EPOCH":3593,"BSTAR":0,"MEAN_MOTION_DOT":-1.0e-7,"MEAN_MOTION_DDOT":0},{"OBJECT_NAME":"GSAT0207 (GALILEO 15)","OBJECT_ID":"2016-069A","EPOCH":"2026-04-03T05:58:52.924224","MEAN_MOTION":1.70474272,"ECCENTRICITY":0.00057815,"INCLINATION":55.4504,"RA_OF_ASC_NODE":103.1579,"ARG_OF_PERICENTER":313.2719,"MEAN_ANOMALY":46.7132,"EPHEMERIS_TYPE":0,"CLASSIFICATION_TYPE":"U","NORAD_CAT_ID":41859,"ELEMENT_SET_NO":999,"REV_AT_EPOCH":5812,"BSTAR":0,"MEAN_MOTION_DOT":3.0e-7,"MEAN_MOTION_DDOT":0}]
